$$SOE
2460147.500000000, A.D. 2023-Jul-22 00:00:00.0000, -7.860444622216622E+08, -1.058378802868256E+09, -6.762219664301131E+08,
2460154.500000000, A.D. 2023-Jul-29 00:00:00.0000, -7.827300199454913E+08, -1.055432197416057E+09, -6.786997787526097E+08,
2460161.500000000, A.D. 2023-Aug-05 00:00:00.0000, -7.794039058414658E+08, -1.052469771061180E+09, -6.811673993945019E+08,
2460168.500000000, A.D. 2023-Aug-12 00:00:00.0000, -7.760661069960475E+08, -1.049491482212643E+09, -6.836247342138009E+08,
2460175.500000000, A.D. 2023-Aug-19 00:00:00.0000, -7.727166102088523E+08, -1.046497289535933E+09, -6.860716882116776E+08,
2460182.500000000, A.D. 2023-Aug-26 00:00:00.0000, -7.693554019943190E+08, -1.043487151862378E+09, -6.885081655147516E+08,
2460189.500000000, A.D. 2023-Sep-02 00:00:00.0000, -7.659824686064509E+08, -1.040461028169887E+09, -6.909340693618741E+08,
2460196.500000000, A.D. 2023-Sep-09 00:00:00.0000, -7.625977960500118E+08, -1.037418877676236E+09, -6.933493021021013E+08,
2460203.500000000, A.D. 2023-Sep-16 00:00:00.0000, -7.592013699097490E+08, -1.034360660102936E+09, -6.957537652239784E+08,
2460210.500000000, A.D. 2023-Sep-23 00:00:00.0000, -7.557931745812503E+08, -1.031286335822880E+09, -6.981473594308307E+08,
2460217.500000000, A.D. 2023-Sep-30 00:00:00.0000, -7.523731922429882E+08, -1.028195864701056E+09, -7.005299846334937E+08,
2460224.500000000, A.D. 2023-Oct-07 00:00:00.0000, -7.489414039233040E+08, -1.025089204171130E+09, -7.029015396888058E+08,
2460231.500000000, A.D. 2023-Oct-14 00:00:00.0000, -7.454977916224104E+08, -1.021966309861078E+09, -7.052619222498376E+08,
2460238.500000000, A.D. 2023-Oct-21 00:00:00.0000, -7.420423382608168E+08, -1.018827137165166E+09, -7.076110288928263E+08,
2460245.500000000, A.D. 2023-Oct-28 00:00:00.0000, -7.385750268785404E+08, -1.015671641502144E+09, -7.099487552052443E+08,
2460252.500000000, A.D. 2023-Nov-04 00:00:00.0000, -7.350958403351417E+08, -1.012499778030044E+09, -7.122749957830358E+08,
2460259.500000000, A.D. 2023-Nov-11 00:00:00.0000, -7.316047613330132E+08, -1.009311501417467E+09, -7.145896442020577E+08,
2460266.500000000, A.D. 2023-Nov-18 00:00:00.0000, -7.281017725444195E+08, -1.006106765735657E+09, -7.168925929888599E+08,
2460273.500000000, A.D. 2023-Nov-25 00:00:00.0000, -7.245868567694623E+08, -1.002885524448823E+09, -7.191837335954093E+08,
2460280.500000000, A.D. 2023-Dec-02 00:00:00.0000, -7.210599970967863E+08, -9.996477305138919E+08, -7.214629563810817E+08,
2460287.500000000, A.D. 2023-Dec-09 00:00:00.0000, -7.175211769892070E+08, -9.963933366486325E+08, -7.237301506137638E+08,
2460294.500000000, A.D. 2023-Dec-16 00:00:00.0000, -7.139703800067182E+08, -9.931222957555735E+08, -7.259852045153775E+08,
2460301.500000000, A.D. 2023-Dec-23 00:00:00.0000, -7.104075888184398E+08, -9.898345608142828E+08, -7.282280053276461E+08,
2460308.500000000, A.D. 2023-Dec-30 00:00:00.0000, -7.068327848437274E+08, -9.865300831927390E+08, -7.304584391895401E+08,
2460315.500000000, A.D. 2024-Jan-06 00:00:00.0000, -7.032459502949016E+08, -9.832088117385144E+08, -7.326763908569019E+08,
2460322.500000000, A.D. 2024-Jan-13 00:00:00.0000, -6.996470694488419E+08, -9.798706944566838E+08, -7.348817437031574E+08,
2460329.500000000, A.D. 2024-Jan-20 00:00:00.0000, -6.960361279239057E+08, -9.765156796898803E+08, -7.370743798615204E+08,
2460336.500000000, A.D. 2024-Jan-27 00:00:00.0000, -6.924131119909227E+08, -9.731437161482990E+08, -7.392541802695484E+08,
2460343.500000000, A.D. 2024-Feb-03 00:00:00.0000, -6.887780083466353E+08, -9.697547527382543E+08, -7.414210246544954E+08,
2460350.500000000, A.D. 2024-Feb-10 00:00:00.0000, -6.851308040722198E+08, -9.663487384804100E+08, -7.435747915088949E+08,
2460357.500000000, A.D. 2024-Feb-17 00:00:00.0000, -6.814714866381773E+08, -9.629256225097623E+08, -7.457153580686139E+08,
2460364.500000000, A.D. 2024-Feb-24 00:00:00.0000, -6.778000439196604E+08, -9.594853541425958E+08, -7.478426002956074E+08,
2460371.500000000, A.D. 2024-Mar-02 00:00:00.0000, -6.741164641928837E+08, -9.560278830429404E+08, -7.499563928708305E+08,
2460378.500000000, A.D. 2024-Mar-09 00:00:00.0000, -6.704207359738134E+08, -9.525531595513930E+08, -7.520566092152650E+08,
2460385.500000000, A.D. 2024-Mar-16 00:00:00.0000, -6.667128473038487E+08, -9.490611349790549E+08, -7.541431215592536E+08,
2460392.500000000, A.D. 2024-Mar-23 00:00:00.0000, -6.629927845860748E+08, -9.455517607575326E+08, -7.562158009600486E+08,
2460399.500000000, A.D. 2024-Mar-30 00:00:00.0000, -6.592605332132516E+08, -9.420249864717929E+08, -7.582745170642070E+08,
2460406.500000000, A.D. 2024-Apr-06 00:00:00.0000, -6.555160797314905E+08, -9.384807601434897E+08, -7.603191379135200E+08,
2460413.500000000, A.D. 2024-Apr-13 00:00:00.0000, -6.517594119885018E+08, -9.349190299283487E+08, -7.623495300518512E+08,
2460420.500000000, A.D. 2024-Apr-20 00:00:00.0000, -6.479905182185799E+08, -9.313397445509537E+08, -7.643655586267941E+08,
2460427.500000000, A.D. 2024-Apr-27 00:00:00.0000, -6.442093865813519E+08, -9.277428530383070E+08, -7.663670873928308E+08,
2460434.500000000, A.D. 2024-May-04 00:00:00.0000, -6.404160050663815E+08, -9.241283044554663E+08, -7.683539786814522E+08,
2460441.500000000, A.D. 2024-May-11 00:00:00.0000, -6.366103615252820E+08, -9.204960477448719E+08, -7.703260933683074E+08,
2460448.500000000, A.D. 2024-May-18 00:00:00.0000, -6.327924437493554E+08, -9.168460316474862E+08, -7.722832908429837E+08,
2460455.500000000, A.D. 2024-May-25 00:00:00.0000, -6.289622395680363E+08, -9.131782047125514E+08, -7.742254289840792E+08,
2460462.500000000, A.D. 2024-Jun-01 00:00:00.0000, -6.251197369082975E+08, -9.094925154530714E+08, -7.761523641495266E+08,
2460469.500000000, A.D. 2024-Jun-08 00:00:00.0000, -6.212649235686635E+08, -9.057889126696758E+08, -7.780639512063882E+08,
2460476.500000000, A.D. 2024-Jun-15 00:00:00.0000, -6.173977863083142E+08, -9.020673453975012E+08, -7.799600435919564E+08,
2460483.500000000, A.D. 2024-Jun-22 00:00:00.0000, -6.135183102565112E+08, -8.983277613007191E+08, -7.818404932176371E+08,
2460490.500000000, A.D. 2024-Jun-29 00:00:00.0000, -6.096264807639626E+08, -8.945701053353209E+08, -7.837051501695375E+08,
2460497.500000000, A.D. 2024-Jul-06 00:00:00.0000, -6.057222850511239E+08, -8.907943211511471E+08, -7.855538626500928E+08,
2460504.500000000, A.D. 2024-Jul-13 00:00:00.0000, -6.018057117041913E+08, -8.870003524089851E+08, -7.873864771085842E+08,
2460511.500000000, A.D. 2024-Jul-20 00:00:00.0000, -5.978767500044644E+08, -8.831881428639938E+08, -7.892028382844553E+08,
2460518.500000000, A.D. 2024-Jul-27 00:00:00.0000, -5.939353897470825E+08, -8.793576361748686E+08, -7.910027891816478E+08,
2460525.500000000, A.D. 2024-Aug-03 00:00:00.0000, -5.899816212762111E+08, -8.755087758136091E+08, -7.927861710296890E+08,
2460532.500000000, A.D. 2024-Aug-10 00:00:00.0000, -5.860154355709095E+08, -8.716415050801542E+08, -7.945528232472396E+08,
2460539.500000000, A.D. 2024-Aug-17 00:00:00.0000, -5.820368243343625E+08, -8.677557671998805E+08, -7.963025834108566E+08,
2460546.500000000, A.D. 2024-Aug-24 00:00:00.0000, -5.780457800586522E+08, -8.638515055258622E+08, -7.980352872335776E+08,
2460553.500000000, A.D. 2024-Aug-31 00:00:00.0000, -5.740422959494624E+08, -8.599286639070060E+08, -7.997507685692065E+08,
2460560.500000000, A.D. 2024-Sep-07 00:00:00.0000, -5.700263653452311E+08, -8.559871870953414E+08, -8.014488594657457E+08,
2460567.500000000, A.D. 2024-Sep-14 00:00:00.0000, -5.659979805455208E+08, -8.520270201962895E+08, -8.031293901946440E+08,
2460574.500000000, A.D. 2024-Sep-21 00:00:00.0000, -5.619571330774453E+08, -8.480481067490871E+08, -8.047921890362355E+08,
2460581.500000000, A.D. 2024-Sep-28 00:00:00.0000, -5.579038158876321E+08, -8.440503886648557E+08, -8.064370820405812E+08,
2460588.500000000, A.D. 2024-Oct-05 00:00:00.0000, -5.538380237900162E+08, -8.400338080205259E+08, -8.080638931003078E+08,
2460595.500000000, A.D. 2024-Oct-12 00:00:00.0000, -5.497597525301020E+08, -8.359983077284025E+08, -8.096724440589390E+08,
2460602.500000000, A.D. 2024-Oct-19 00:00:00.0000, -5.456689982166325E+08, -8.319438313520485E+08, -8.112625547162869E+08,
2460609.500000000, A.D. 2024-Oct-26 00:00:00.0000, -5.415657571530083E+08, -8.278703228697054E+08, -8.128340427934449E+08,
2460616.500000000, A.D. 2024-Nov-02 00:00:00.0000, -5.374500258110337E+08, -8.237777265334055E+08, -8.143867238930850E+08,
2460623.500000000, A.D. 2024-Nov-09 00:00:00.0000, -5.333218008502631E+08, -8.196659868028097E+08, -8.159204114622099E+08,
2460630.500000000, A.D. 2024-Nov-16 00:00:00.0000, -5.291810791569095E+08, -8.155350483532255E+08, -8.174349167596453E+08,
2460637.500000000, A.D. 2024-Nov-23 00:00:00.0000, -5.250278578552457E+08, -8.113848562074267E+08, -8.189300488366039E+08,
2460644.500000000, A.D. 2024-Nov-30 00:00:00.0000, -5.208621340830883E+08, -8.072153560336795E+08, -8.204056145528064E+08,
2460651.500000000, A.D. 2024-Dec-07 00:00:00.0000, -5.166839041118401E+08, -8.030264941891301E+08, -8.218614186321603E+08,
2460658.500000000, A.D. 2024-Dec-14 00:00:00.0000, -5.124931624996477E+08, -7.988182162844133E+08, -8.232972635946574E+08,
2460665.500000000, A.D. 2024-Dec-21 00:00:00.0000, -5.082899035961612E+08, -7.945904655101175E+08, -8.247129494530509E+08,
2460672.500000000, A.D. 2024-Dec-28 00:00:00.0000, -5.040741234263797E+08, -7.903431836923649E+08, -8.261082735975244E+08,
2460679.500000000, A.D. 2025-Jan-04 00:00:00.0000, -4.998458193562989E+08, -7.860763127012920E+08, -8.274830309122014E+08,
2460686.500000000, A.D. 2025-Jan-11 00:00:00.0000, -4.956049893615606E+08, -7.817897945525534E+08, -8.288370138205585E+08,
2460693.500000000, A.D. 2025-Jan-18 00:00:00.0000, -4.913516318159404E+08, -7.774835711206317E+08, -8.301700122504511E+08,
2460700.500000000, A.D. 2025-Jan-25 00:00:00.0000, -4.870857455560583E+08, -7.731575839385064E+08, -8.314818135795826E+08,
2460707.500000000, A.D. 2025-Feb-01 00:00:00.0000, -4.828073300326858E+08, -7.688117741138217E+08, -8.327722025809834E+08,
$$EOE